STARLINK-31507          
1 59401U 24064D   26067.29226240  .00002143  00000+0  87353-4 0  9992
2 59401  43.0025  63.9239 0001145 276.0701  84.0020 15.27589170108953
KUIPER-00266            
1 67789U 26030AB  26067.91293632  .00029701  00000+0  98220-3 0  9996
2 67789  51.8807 223.5904 0022313  72.5291 287.8129 15.30874235  4964
